start=new Date('2021-09-11T00:00:00.000Z').valueOf();
sats=[{"MEAN_MOTION":"15.06398335","FILE":"3112758","SITE":"AFETR","PERIOD":"95.592","SEMIMAJOR_AXIS":"6925.354","DECAY_DATE":null,"RA_OF_ASC_NODE":"182.6182","MEAN_MOTION_DDOT":"0.0000000000000","MEAN_MOTION_DOT":"0.00000112","OBJECT_TYPE":"PAYLOAD","EPHEMERIS_TYPE":"0","ELEMENT_SET_NO":"999","CLASSIFICATION_TYPE":"U","GP_ID":"184474093","OBJECT_NAME":"STARLINK-1770","COUNTRY_CODE":"US","OBJECT_ID":"2020-062BL","LAUNCH_DATE":"2020-09-03","TLE_LINE1":"1 46383U 20062BL  21253.85470361  .00000112  00000-0  26398-4 0  9997","BSTAR":"0.00002639800000","INCLINATION":"53.0542","ARG_OF_PERICENTER":"65.0674","ECCENTRICITY":"0.00016160","RCS_SIZE":"LARGE","REV_AT_EPOCH":"5699","MEAN_ELEMENT_THEORY":"SGP4","APOAPSIS":"548.338","TLE_LINE2":"2 46383  53.0542 182.6182 0001616  65.0674 295.0483 15.06398335 56998","NORAD_CAT_ID":"46383","PERIAPSIS":"546.100","CENTER_NAME":"EARTH","MEAN_ANOMALY":"295.0483","REF_FRAME":"TEME","TIME_SYSTEM":"UTC","EPOCH":"2021-09-10T20:30:46.391904"},{"SITE":"AFETR","PERIOD":"95.593","FILE":"3112758","MEAN_MOTION":"15.06393651","SEMIMAJOR_AXIS":"6925.368","MEAN_MOTION_DOT":"0.00001278","MEAN_MOTION_DDOT":"0.0000000000000","RA_OF_ASC_NODE":"182.8891","DECAY_DATE":null,"OBJECT_NAME":"STARLINK-1771","COUNTRY_CODE":"US","ELEMENT_SET_NO":"999","GP_ID":"184474343","CLASSIFICATION_TYPE":"U","OBJECT_TYPE":"PAYLOAD","EPHEMERIS_TYPE":"0","TLE_LINE1":"1 46384U 20062BM  21253.79204460  .00001278  00000-0  10472-3 0  9995","OBJECT_ID":"2020-062BM","LAUNCH_DATE":"2020-09-03","RCS_SIZE":"LARGE","INCLINATION":"53.0533","ARG_OF_PERICENTER":"54.2989","ECCENTRICITY":"0.00016830","BSTAR":"0.00010472000000","MEAN_ELEMENT_THEORY":"SGP4","APOAPSIS":"548.399","REV_AT_EPOCH":"5698","EPOCH":"2021-09-10T19:00:32.653440","REF_FRAME":"TEME","TIME_SYSTEM":"UTC","MEAN_ANOMALY":"305.8156","TLE_LINE2":"2 46384  53.0533 182.8891 0001683  54.2989 305.8156 15.06393651 56983","PERIAPSIS":"546.067","NORAD_CAT_ID":"46384","CENTER_NAME":"EARTH"},{"MEAN_MOTION_DDOT":"0.0000000000000","MEAN_MOTION_DOT":"0.00001251","DECAY_DATE":null,"RA_OF_ASC_NODE":"348.5632","ELEMENT_SET_NO":"999","GP_ID":"184441944","CLASSIFICATION_TYPE":"U","OBJECT_NAME":"STARLINK-1644","COUNTRY_CODE":"US","EPHEMERIS_TYPE":"0","OBJECT_TYPE":"PAYLOAD","MEAN_MOTION":"15.06393892","FILE":"3112362","SITE":"AFETR","PERIOD":"95.593","SEMIMAJOR_AXIS":"6925.367","APOAPSIS":"547.853","MEAN_ELEMENT_THEORY":"SGP4","REV_AT_EPOCH":"5199","REF_FRAME":"TEME","TIME_SYSTEM":"UTC","EPOCH":"2021-09-09T12:45:17.215200","TLE_LINE2":"2 46532  53.0553 348.5632 0000896 101.8386 258.2704 15.06393892 51992","NORAD_CAT_ID":"46532","PERIAPSIS":"546.612","CENTER_NAME":"EARTH","MEAN_ANOMALY":"258.2704","TLE_LINE1":"1 46532U 20070A   21252.53144925  .00001251  00000-0  10286-3 0  9993","OBJECT_ID":"2020-070A","LAUNCH_DATE":"2020-10-06","RCS_SIZE":"LARGE","BSTAR":"0.00010286000000","INCLINATION":"53.0553","ARG_OF_PERICENTER":"101.8386","ECCENTRICITY":"0.00008960"},{"REV_AT_EPOCH":"5217","MEAN_ELEMENT_THEORY":"SGP4","APOAPSIS":"547.900","MEAN_ANOMALY":"259.3881","CENTER_NAME":"EARTH","PERIAPSIS":"546.513","TLE_LINE2":"2 46533  53.0568 343.1593 0001001 100.7220 259.3881 15.06402361 52171","NORAD_CAT_ID":"46533","EPOCH":"2021-09-10T17:40:54.806016","TIME_SYSTEM":"UTC","REF_FRAME":"TEME","OBJECT_ID":"2020-070B","LAUNCH_DATE":"2020-10-06","TLE_LINE1":"1 46533U 20070B   21253.73674544  .00000130  00000-0  27636-4 0  9995","ECCENTRICITY":"0.00010010","INCLINATION":"53.0568","ARG_OF_PERICENTER":"100.7220","BSTAR":"0.00002763600000","RCS_SIZE":"LARGE","RA_OF_ASC_NODE":"343.1593","DECAY_DATE":null,"MEAN_MOTION_DOT":"0.00000130","MEAN_MOTION_DDOT":"0.0000000000000","OBJECT_TYPE":"PAYLOAD","EPHEMERIS_TYPE":"0","COUNTRY_CODE":"US","OBJECT_NAME":"STARLINK-1648","GP_ID":"184475109","CLASSIFICATION_TYPE":"U","ELEMENT_SET_NO":"999","PERIOD":"95.592","SITE":"AFETR","MEAN_MOTION":"15.06402361","FILE":"3112758","SEMIMAJOR_AXIS":"6925.341"},{"SEMIMAJOR_AXIS":"6925.371","MEAN_MOTION":"15.06392581","FILE":"3112758","SITE":"AFETR","PERIOD":"95.593","ELEMENT_SET_NO":"999","GP_ID":"184474860","CLASSIFICATION_TYPE":"U","OBJECT_NAME":"STARLINK-1659","COUNTRY_CODE":"US","EPHEMERIS_TYPE":"0","OBJECT_TYPE":"PAYLOAD","MEAN_MOTION_DDOT":"0.0000000000000","MEAN_MOTION_DOT":"-0.00000547","DECAY_DATE":null,"RA_OF_ASC_NODE":"343.2359","RCS_SIZE":"LARGE","BSTAR":"-0.00001787100000","INCLINATION":"53.0545","ARG_OF_PERICENTER":"116.2816","ECCENTRICITY":"0.00009280","TLE_LINE1":"1 46534U 20070C   21253.71832295 -.00000547  00000-0 -17871-4 0  9997","OBJECT_ID":"2020-070C","LAUNCH_DATE":"2020-10-06","REF_FRAME":"TEME","TIME_SYSTEM":"UTC","EPOCH":"2021-09-10T17:14:23.102880","TLE_LINE2":"2 46534  53.0545 343.2359 0000928 116.2816 243.8269 15.06392581 52178","PERIAPSIS":"546.594","NORAD_CAT_ID":"46534","CENTER_NAME":"EARTH","MEAN_ANOMALY":"243.8269","APOAPSIS":"547.879","MEAN_ELEMENT_THEORY":"SGP4","REV_AT_EPOCH":"5217"},{"TLE_LINE1":"1 46535U 20070D   21253.64091532  .00001340  00000-0  10880-3 0  9993","OBJECT_ID":"2020-070D","LAUNCH_DATE":"2020-10-06","RCS_SIZE":"LARGE","INCLINATION":"53.0553","ARG_OF_PERICENTER":"115.9143","ECCENTRICITY":"0.00010340","BSTAR":"0.00010880000000","MEAN_ELEMENT_THEORY":"SGP4","APOAPSIS":"547.935","REV_AT_EPOCH":"5215","EPOCH":"2021-09-10T15:22:55.083648","REF_FRAME":"TEME","TIME_SYSTEM":"UTC","MEAN_ANOMALY":"244.1952","PERIAPSIS":"546.503","TLE_LINE2":"2 46535  53.0553 343.5860 0001034 115.9143 244.1952 15.06398299 52159","NORAD_CAT_ID":"46535","CENTER_NAME":"EARTH","SITE":"AFETR","PERIOD":"95.592","FILE":"3112758","MEAN_MOTION":"15.06398299","SEMIMAJOR_AXIS":"6925.354","MEAN_MOTION_DOT":"0.00001340","MEAN_MOTION_DDOT":"0.0000000000000","RA_OF_ASC_NODE":"343.5860","DECAY_DATE":null,"OBJECT_NAME":"STARLINK-1663","COUNTRY_CODE":"US","ELEMENT_SET_NO":"999","GP_ID":"184473608","CLASSIFICATION_TYPE":"U","EPHEMERIS_TYPE":"0","OBJECT_TYPE":"PAYLOAD"},{"DECAY_DATE":null,"RA_OF_ASC_NODE":"334.0372","MEAN_MOTION_DDOT":"0.0000000000000","MEAN_MOTION_DOT":"-0.00005393","EPHEMERIS_TYPE":"0","OBJECT_TYPE":"PAYLOAD","GP_ID":"184473858","CLASSIFICATION_TYPE":"U","ELEMENT_SET_NO":"999","COUNTRY_CODE":"US","OBJECT_NAME":"STARLINK-1668","MEAN_MOTION":"15.42153999","FILE":"3112758","PERIOD":"93.376","SITE":"AFETR","SEMIMAJOR_AXIS":"6817.890","REV_AT_EPOCH":"5229","APOAPSIS":"440.966","MEAN_ELEMENT_THEORY":"SGP4","CENTER_NAME":"EARTH","NORAD_CAT_ID":"46536","TLE_LINE2":"2 46536  53.0542 334.0372 0001776  34.4356 325.6763 15.42153999 52291","PERIAPSIS":"438.544","MEAN_ANOMALY":"325.6763","TIME_SYSTEM":"UTC","REF_FRAME":"TEME","EPOCH":"2021-09-10T15:06:26.119008","OBJECT_ID":"2020-070E","LAUNCH_DATE":"2020-10-06","TLE_LINE1":"1 46536U 20070E   21253.62946897 -.00005393  00000-0 -11456-3 0  9999","BSTAR":"-0.00011456000000","ECCENTRICITY":"0.00017760","ARG_OF_PERICENTER":"34.4356","INCLINATION":"53.0542","RCS_SIZE":"LARGE"},{"SITE":"AFETR","PERIOD":"95.592","MEAN_MOTION":"15.06397905","FILE":"3112758","SEMIMAJOR_AXIS":"6925.355","MEAN_MOTION_DOT":"0.00000107","MEAN_MOTION_DDOT":"0.0000000000000","RA_OF_ASC_NODE":"344.3595","DECAY_DATE":null,"OBJECT_NAME":"STARLINK-1672","COUNTRY_CODE":"US","ELEMENT_SET_NO":"999","GP_ID":"184474610","CLASSIFICATION_TYPE":"U","EPHEMERIS_TYPE":"0","OBJECT_TYPE":"PAYLOAD","TLE_LINE1":"1 46537U 20070F   21253.46767463  .00000107  00000-0  26082-4 0  9990","LAUNCH_DATE":"2020-10-06","OBJECT_ID":"2020-070F","RCS_SIZE":"LARGE","ARG_OF_PERICENTER":"108.0371","INCLINATION":"53.0564","ECCENTRICITY":"0.00008950","BSTAR":"0.00002608200000","APOAPSIS":"547.840","MEAN_ELEMENT_THEORY":"SGP4","REV_AT_EPOCH":"5213","EPOCH":"2021-09-10T11:13:27.088032","REF_FRAME":"TEME","TIME_SYSTEM":"UTC","MEAN_ANOMALY":"252.0716","NORAD_CAT_ID":"46537","TLE_LINE2":"2 46537  53.0564 344.3595 0000895 108.0371 252.0716 15.06397905 52134","PERIAPSIS":"546.600","CENTER_NAME":"EARTH"},{"SEMIMAJOR_AXIS":"6925.364","FILE":"3112758","MEAN_MOTION":"15.06394942","PERIOD":"95.592","SITE":"AFETR","OBJECT_TYPE":"PAYLOAD","EPHEMERIS_TYPE":"0","CLASSIFICATION_TYPE":"U","GP_ID":"184475360","ELEMENT_SET_NO":"999","COUNTRY_CODE":"US","OBJECT_NAME":"STARLINK-1678","DECAY_DATE":null,"RA_OF_ASC_NODE":"343.8678","MEAN_MOTION_DDOT":"0.0000000000000","MEAN_MOTION_DOT":"0.00001616","BSTAR":"0.00012735000000","ECCENTRICITY":"0.00008540","ARG_OF_PERICENTER":"110.0472","INCLINATION":"53.0550","RCS_SIZE":"LARGE","OBJECT_ID":"2020-070G","LAUNCH_DATE":"2020-10-06","TLE_LINE1":"1 46538U 20070G   21253.57825585  .00001616  00000-0  12735-3 0  9998","CENTER_NAME":"EARTH","TLE_LINE2":"2 46538  53.0550 343.8678 0000854 110.0472 250.0609 15.06394942 52144","NORAD_CAT_ID":"46538","PERIAPSIS":"546.638","MEAN_ANOMALY":"250.0609","TIME_SYSTEM":"UTC","REF_FRAME":"TEME","EPOCH":"2021-09-10T13:52:41.305440","REV_AT_EPOCH":"5214","APOAPSIS":"547.820","MEAN_ELEMENT_THEORY":"SGP4"},{"RCS_SIZE":"LARGE","BSTAR":"0.00004948500000","ARG_OF_PERICENTER":"143.4581","INCLINATION":"53.0539","ECCENTRICITY":"0.00034420","TLE_LINE1":"1 46539U 20070H   21253.76993219  .00000455  00000-0  49485-4 0  9993","LAUNCH_DATE":"2020-10-06","OBJECT_ID":"2020-070H","REF_FRAME":"TEME","TIME_SYSTEM":"UTC","EPOCH":"2021-09-10T18:28:42.141216","TLE_LINE2":"2 46539  53.0539 343.0051 0003442 143.4581 216.6643 15.06399566 52183","PERIAPSIS":"544.831","NORAD_CAT_ID":"46539","CENTER_NAME":"EARTH","MEAN_ANOMALY":"216.6643","APOAPSIS":"549.599","MEAN_ELEMENT_THEORY":"SGP4","REV_AT_EPOCH":"5218","SEMIMAJOR_AXIS":"6925.350","MEAN_MOTION":"15.06399566","FILE":"3112758","SITE":"AFETR","PERIOD":"95.592","ELEMENT_SET_NO":"999","GP_ID":"184474108","CLASSIFICATION_TYPE":"U","OBJECT_NAME":"STARLINK-1684","COUNTRY_CODE":"US","EPHEMERIS_TYPE":"0","OBJECT_TYPE":"PAYLOAD","MEAN_MOTION_DDOT":"0.0000000000000","MEAN_MOTION_DOT":"0.00000455","DECAY_DATE":null,"RA_OF_ASC_NODE":"343.0051"}];
